{
  "norad_id": 49426,
  "name": "STARLINK-3114",
  "history": [
    {
      "epoch": "2026-03-28T13:27:42.803712Z",
      "apogee_km": 540.8754764522346,
      "perigee_km": 538.6866471774756,
      "latitude_deg": 2.1603905234573688e-05,
      "longitude_deg": 116.49707129540114,
      "height_km": 541.0124685257477,
      "semi_major_axis_km": 6917.918061814855,
      "eccentricity": 0.0001582,
      "inclination_deg": 53.2166,
      "raan_deg": 144.405,
      "arg_perigee_deg": 107.8795,
      "mean_anomaly_deg": 252.237,
      "mean_motion_rev_day": 15.08827675
    },
    {
      "epoch": "2026-03-30T03:36:58.046976Z",
      "apogee_km": 540.681605817349,
      "perigee_km": 538.7998047239616,
      "latitude_deg": 4.133657295586702e-05,
      "longitude_deg": -104.51976584089272,
      "height_km": 540.4402492298817,
      "semi_major_axis_km": 6917.877705270655,
      "eccentricity": 0.00013601,
      "inclination_deg": 53.2148,
      "raan_deg": 137.2686,
      "arg_perigee_deg": 77.9813,
      "mean_anomaly_deg": 282.1332,
      "mean_motion_rev_day": 15.08840878
    },
    {
      "epoch": "2026-03-30T11:33:53.813376Z",
      "apogee_km": 540.6731676083909,
      "perigee_km": 538.8188982402462,
      "latitude_deg": -1.2249659297026264e-05,
      "longitude_deg": 134.43408809387702,
      "height_km": 540.4195417999501,
      "semi_major_axis_km": 6917.883032924318,
      "eccentricity": 0.00013402,
      "inclination_deg": 53.2153,
      "raan_deg": 135.7813,
      "arg_perigee_deg": 76.1422,
      "mean_anomaly_deg": 283.9719,
      "mean_motion_rev_day": 15.08839135
    },
    {
      "epoch": "2026-03-30T19:30:49.321440Z",
      "apogee_km": 540.6679011620172,
      "perigee_km": 538.802151076573,
      "latitude_deg": -4.851509484733727e-06,
      "longitude_deg": 13.389566722948954,
      "height_km": 540.406725514015,
      "semi_major_axis_km": 6917.872026119295,
      "eccentricity": 0.00013485,
      "inclination_deg": 53.2154,
      "raan_deg": 134.2945,
      "arg_perigee_deg": 76.1147,
      "mean_anomaly_deg": 283.9995,
      "mean_motion_rev_day": 15.08842736
    },
    {
      "epoch": "2026-03-31T13:00:06.037920Z",
      "apogee_km": 540.6991853875579,
      "perigee_km": 538.9097906422676,
      "latitude_deg": 6.418020541696864e-05,
      "longitude_deg": 107.0810613431194,
      "height_km": 540.5929649148194,
      "semi_major_axis_km": 6917.9414880149125,
      "eccentricity": 0.00012933,
      "inclination_deg": 53.2153,
      "raan_deg": 131.0238,
      "arg_perigee_deg": 83.1252,
      "mean_anomaly_deg": 276.9888,
      "mean_motion_rev_day": 15.08820011
    },
    {
      "epoch": "2026-04-01T11:15:29.526336Z",
      "apogee_km": 540.6766763582355,
      "perigee_km": 538.8600344119113,
      "latitude_deg": 1.4956320227194486e-05,
      "longitude_deg": 128.15641457866857,
      "height_km": 540.575288868265,
      "semi_major_axis_km": 6917.905355385073,
      "eccentricity": 0.0001313,
      "inclination_deg": 53.2149,
      "raan_deg": 126.8611,
      "arg_perigee_deg": 84.4038,
      "mean_anomaly_deg": 275.7104,
      "mean_motion_rev_day": 15.08831832
    },
    {
      "epoch": "2026-04-02T19:03:12.190176Z",
      "apogee_km": 540.6077471767012,
      "perigee_km": 538.7997003251412,
      "latitude_deg": 3.602588462638258e-05,
      "longitude_deg": 3.97518363136516,
      "height_km": 540.4823137169442,
      "semi_major_axis_km": 6917.840723750921,
      "eccentricity": 0.00013068,
      "inclination_deg": 53.2138,
      "raan_deg": 120.9134,
      "arg_perigee_deg": 82.5751,
      "mean_anomaly_deg": 277.539,
      "mean_motion_rev_day": 15.08852977
    },
    {
      "epoch": "2026-04-03T09:21:39.704832Z",
      "apogee_km": 540.7026241594558,
      "perigee_km": 538.620090142018,
      "latitude_deg": 2.4987861819390107e-05,
      "longitude_deg": 146.09593712069096,
      "height_km": 540.4043624771365,
      "semi_major_axis_km": 6917.798357150737,
      "eccentricity": 0.00015052,
      "inclination_deg": 53.2139,
      "raan_deg": 118.2364,
      "arg_perigee_deg": 81.5974,
      "mean_anomaly_deg": 278.5189,
      "mean_motion_rev_day": 15.08866838
    },
    {
      "epoch": "2026-04-04T10:47:49.130016Z",
      "apogee_km": 540.6246591319305,
      "perigee_km": 538.8051257271845,
      "latitude_deg": 8.229853741086205e-06,
      "longitude_deg": 118.75393517895063,
      "height_km": 540.4679762291738,
      "semi_major_axis_km": 6917.851892429558,
      "eccentricity": 0.00013151,
      "inclination_deg": 53.214,
      "raan_deg": 113.4783,
      "arg_perigee_deg": 80.998,
      "mean_anomaly_deg": 279.1161,
      "mean_motion_rev_day": 15.08849323
    },
    {
      "epoch": "2026-04-05T10:38:36.712608Z",
      "apogee_km": 540.6940326967197,
      "perigee_km": 538.7689282559722,
      "latitude_deg": -2.871425499291583e-05,
      "longitude_deg": 115.61640255318721,
      "height_km": 540.5789825232223,
      "semi_major_axis_km": 6917.868480476346,
      "eccentricity": 0.00013914,
      "inclination_deg": 53.2168,
      "raan_deg": 109.0184,
      "arg_perigee_deg": 87.1353,
      "mean_anomaly_deg": 272.9798,
      "mean_motion_rev_day": 15.08843896
    },
    {
      "epoch": "2026-04-06T07:18:37.265472Z",
      "apogee_km": 540.7038266770378,
      "perigee_km": 538.8014070324034,
      "latitude_deg": 5.440704281731713e-05,
      "longitude_deg": 160.89930285713191,
      "height_km": 540.585883008684,
      "semi_major_axis_km": 6917.889616854721,
      "eccentricity": 0.0001375,
      "inclination_deg": 53.2163,
      "raan_deg": 105.1523,
      "arg_perigee_deg": 86.2448,
      "mean_anomaly_deg": 273.8702,
      "mean_motion_rev_day": 15.08836981
    },
    {
      "epoch": "2026-04-07T10:20:10.718304Z",
      "apogee_km": 540.7111832877526,
      "perigee_km": 538.7906392458272,
      "latitude_deg": 3.0691312216860074e-05,
      "longitude_deg": 109.34497873309648,
      "height_km": 540.5673214223435,
      "semi_major_axis_km": 6917.88791126679,
      "eccentricity": 0.00013881,
      "inclination_deg": 53.2163,
      "raan_deg": 100.0973,
      "arg_perigee_deg": 85.2725,
      "mean_anomaly_deg": 274.8426,
      "mean_motion_rev_day": 15.08837539
    },
    {
      "epoch": "2026-04-08T07:00:11.744640Z",
      "apogee_km": 540.7043196503901,
      "perigee_km": 538.8016231926495,
      "latitude_deg": 8.217116117706577e-06,
      "longitude_deg": 154.62552150261388,
      "height_km": 540.5540441713773,
      "semi_major_axis_km": 6917.8899714215195,
      "eccentricity": 0.00013752,
      "inclination_deg": 53.2163,
      "raan_deg": 96.2309,
      "arg_perigee_deg": 84.299,
      "mean_anomaly_deg": 275.8159,
      "mean_motion_rev_day": 15.08836865
    },
    {
      "epoch": "2026-04-09T06:50:59.031744Z",
      "apogee_km": 540.7768511176582,
      "perigee_km": 538.734550834477,
      "latitude_deg": 6.082686822112131e-05,
      "longitude_deg": 151.48948833490064,
      "height_km": 540.6345919064046,
      "semi_major_axis_km": 6917.892700976067,
      "eccentricity": 0.00014761,
      "inclination_deg": 53.2169,
      "raan_deg": 91.7712,
      "arg_perigee_deg": 89.0691,
      "mean_anomaly_deg": 271.0471,
      "mean_motion_rev_day": 15.08835972
    },
    {
      "epoch": "2026-04-10T08:17:09.136896Z",
      "apogee_km": 540.7750772336167,
      "perigee_km": 538.7453661887666,
      "latitude_deg": 3.7916292188802004e-06,
      "longitude_deg": 124.1439130612099,
      "height_km": 540.5989775781154,
      "semi_major_axis_km": 6917.897221711191,
      "eccentricity": 0.0001467,
      "inclination_deg": 53.2171,
      "raan_deg": 87.0124,
      "arg_perigee_deg": 86.7932,
      "mean_anomaly_deg": 273.3228,
      "mean_motion_rev_day": 15.08834493
    },
    {
      "epoch": "2026-04-11T16:04:51.864672Z",
      "apogee_km": 540.7310551328492,
      "perigee_km": 538.7636088288336,
      "latitude_deg": -5.606457556837654e-06,
      "longitude_deg": -0.03761148508783541,
      "height_km": 540.6372490978732,
      "semi_major_axis_km": 6917.884331980841,
      "eccentricity": 0.0001422,
      "inclination_deg": 53.2169,
      "raan_deg": 81.0647,
      "arg_perigee_deg": 89.6709,
      "mean_anomaly_deg": 270.4446,
      "mean_motion_rev_day": 15.0883871
    },
    {
      "epoch": "2026-04-13T04:38:43.918368Z",
      "apogee_km": 540.7848638033802,
      "perigee_km": 538.7082535167419,
      "latitude_deg": -8.695278956035245e-06,
      "longitude_deg": 163.15434592152286,
      "height_km": 540.6404570152998,
      "semi_major_axis_km": 6917.883558660061,
      "eccentricity": 0.00015009,
      "inclination_deg": 53.2164,
      "raan_deg": 74.2252,
      "arg_perigee_deg": 89.9169,
      "mean_anomaly_deg": 270.1995,
      "mean_motion_rev_day": 15.08838963
    },
    {
      "epoch": "2026-04-14T20:23:22.475616Z",
      "apogee_km": 540.893437581316,
      "perigee_km": 538.6077675174329,
      "latitude_deg": -2.966802331739882e-05,
      "longitude_deg": -82.07215298964861,
      "height_km": 540.6803351328122,
      "semi_major_axis_km": 6917.887602549374,
      "eccentricity": 0.0001652,
      "inclination_deg": 53.2181,
      "raan_deg": 66.7916,
      "arg_perigee_deg": 91.7228,
      "mean_anomaly_deg": 268.3953,
      "mean_motion_rev_day": 15.0883764
    },
    {
      "epoch": "2026-04-15T13:52:37.000128Z",
      "apogee_km": 540.9039187713825,
      "perigee_km": 538.6016450519628,
      "latitude_deg": -6.030651814159399e-05,
      "longitude_deg": 11.62722612984687,
      "height_km": 540.6268873012751,
      "semi_major_axis_km": 6917.889781911673,
      "eccentricity": 0.0001664,
      "inclination_deg": 53.2155,
      "raan_deg": 63.5197,
      "arg_perigee_deg": 88.9557,
      "mean_anomaly_deg": 271.1625,
      "mean_motion_rev_day": 15.08836927
    }
  ]
}